ONEWEB-0012             
1 44057U 19010A   26098.10798085 -.00000087  00000+0 -26051-3 0  9997
2 44057  87.9048 242.7094 0001901 113.2406 246.8925 13.16594530342343
ONEWEB-0010             
1 44058U 19010B   26098.13331567 -.00000179  00000+0 -50179-3 0  9999
2 44058  87.9051 242.7000 0002044  92.0457 268.0908 13.16593447342392
ONEWEB-0008             
1 44059U 19010C   26098.15864546 -.00000008  00000+0 -54267-4 0  9994
2 44059  87.9049 242.6920 0001545 100.5684 259.5621 13.16594344342510
ONEWEB-0007             
1 44060U 19010D   26098.21418861 -.00000050  00000+0 -16711-3 0  9996
2 44060  87.8927 273.1860 0002053  97.7476 262.3887 13.15548334342174
ONEWEB-0006             
1 44061U 19010E   26098.21814830 -.00000051  00000+0 -17033-3 0  9992
2 44061  87.8939 273.1421 0001934  91.7885 268.3466 13.15549390342224
ONEWEB-0011             
1 44062U 19010F   26098.18644840 -.00000004  00000+0 -43948-4 0  9994
2 44062  87.8944 273.1571 0001706  87.2303 272.9023 13.15549444342218
ONEWEB-0013             
1 45131U 20008A   26097.94829123 -.00000515  00000+0 -15334-2 0  9996
2 45131  87.8485  66.9923 0001851 113.9117 246.2204 13.09454196296873
ONEWEB-0017             
1 45132U 20008B   26098.13260487 -.00000438  00000+0 -12916-2 0  9998
2 45132  87.8826  50.2093 0002064  75.7966 284.3391 13.10374853298775
ONEWEB-0020             
1 45133U 20008C   26098.10272442 -.00000029  00000+0 -11985-3 0  9992
2 45133  87.8828  50.2082 0001885  81.0512 279.0829 13.10371057299167
ONEWEB-0021             
1 45134U 20008D   26097.88857417 -.00000538  00000+0 -15775-2 0  9993
2 45134  87.8821  50.2728 0001919  82.8338 277.3007 13.10373609299446
ONEWEB-0023             
1 45136U 20008F   26098.12844853 -.00000594  00000+0 -17367-2 0  9994
2 45136  87.8827  50.2044 0001817  85.1461 274.9874 13.10374382298909
ONEWEB-0024             
1 45137U 20008G   26098.25378284  .00000115  00000+0  29420-3 0  9990
2 45137  87.8828  50.1676 0001909  80.4139 279.7204 13.10371240299083
ONEWEB-0025             
1 45138U 20008H   26098.25129430 -.00000305  00000+0 -90927-3 0  9991
2 45138  87.8834  50.1548 0002022  91.2161 268.9198 13.10372232299412
ONEWEB-0026             
1 45139U 20008J   26098.27073079  .00000493  00000+0  13543-2 0  9995
2 45139  87.8921  34.9633 0001933  74.5594 285.5748 13.11416768301941
ONEWEB-0028             
1 45140U 20008K   26098.22747764 -.00000394  00000+0 -11488-2 0  9999
2 45140  87.8906  34.9776 0001747  97.1588 262.9739 13.11414254299450
ONEWEB-0032             
1 45141U 20008L   26097.90517610 -.00000291  00000+0 -86980-3 0  9995
2 45141  87.8824  50.2559 0001687  95.5475 264.5845 13.10378304299090
