[{"OBJECT_NAME":"ONEWEB-0012","OBJECT_ID":"2019-010A","EPOCH":"2026-04-08T02:35:29.545440","MEAN_MOTION":13.1659453,"ECCENTRICITY":0.0001901,"INCLINATION":87.9048,"RA_OF_ASC_NODE":242.7094,"ARG_OF_PERICENTER":113.2406,"MEAN_ANOMALY":246.8925,"EPHEMERIS_TYPE":0,"CLASSIFICATION_TYPE":"U","NORAD_CAT_ID":44057,"ELEMENT_SET_NO":999,"REV_AT_EPOCH":34234,"BSTAR":-0.00026051000000000004,"MEAN_MOTION_DOT":-8.7e-07,"MEAN_MOTION_DDOT":0.0},{"OBJECT_NAME":"ONEWEB-0010","OBJECT_ID":"2019-010B","EPOCH":"2026-04-08T03:11:58.473888","MEAN_MOTION":13.16593447,"ECCENTRICITY":0.0002044,"INCLINATION":87.9051,"RA_OF_ASC_NODE":242.7,"ARG_OF_PERICENTER":92.0457,"MEAN_ANOMALY":268.0908,"EPHEMERIS_TYPE":0,"CLASSIFICATION_TYPE":"U","NORAD_CAT_ID":44058,"ELEMENT_SET_NO":999,"REV_AT_EPOCH":34239,"BSTAR":-0.00050179,"MEAN_MOTION_DOT":-1.79e-06,"MEAN_MOTION_DDOT":0.0},{"OBJECT_NAME":"ONEWEB-0008","OBJECT_ID":"2019-010C","EPOCH":"2026-04-08T03:48:26.967744","MEAN_MOTION":13.16594344,"ECCENTRICITY":0.0001545,"INCLINATION":87.9049,"RA_OF_ASC_NODE":242.692,"ARG_OF_PERICENTER":100.5684,"MEAN_ANOMALY":259.5621,"EPHEMERIS_TYPE":0,"CLASSIFICATION_TYPE":"U","NORAD_CAT_ID":44059,"ELEMENT_SET_NO":999,"REV_AT_EPOCH":34251,"BSTAR":-5.4267e-05,"MEAN_MOTION_DOT":-8e-08,"MEAN_MOTION_DDOT":0.0},{"OBJECT_NAME":"ONEWEB-0007","OBJECT_ID":"2019-010D","EPOCH":"2026-04-08T05:08:25.895904","MEAN_MOTION":13.15548334,"ECCENTRICITY":0.0002053,"INCLINATION":87.8927,"RA_OF_ASC_NODE":273.186,"ARG_OF_PERICENTER":97.7476,"MEAN_ANOMALY":262.3887,"EPHEMERIS_TYPE":0,"CLASSIFICATION_TYPE":"U","NORAD_CAT_ID":44060,"ELEMENT_SET_NO":999,"REV_AT_EPOCH":34217,"BSTAR":-0.00016711000000000002,"MEAN_MOTION_DOT":-5e-07,"MEAN_MOTION_DDOT":0.0},{"OBJECT_NAME":"ONEWEB-0006","OBJECT_ID":"2019-010E","EPOCH":"2026-04-08T05:14:08.013120","MEAN_MOTION":13.1554939,"ECCENTRICITY":0.0001934,"INCLINATION":87.8939,"RA_OF_ASC_NODE":273.1421,"ARG_OF_PERICENTER":91.7885,"MEAN_ANOMALY":268.3466,"EPHEMERIS_TYPE":0,"CLASSIFICATION_TYPE":"U","NORAD_CAT_ID":44061,"ELEMENT_SET_NO":999,"REV_AT_EPOCH":34222,"BSTAR":-0.00017033,"MEAN_MOTION_DOT":-5.1e-07,"MEAN_MOTION_DDOT":0.0},{"OBJECT_NAME":"ONEWEB-0011","OBJECT_ID":"2019-010F","EPOCH":"2026-04-08T04:28:29.141760","MEAN_MOTION":13.15549444,"ECCENTRICITY":0.0001706,"INCLINATION":87.8944,"RA_OF_ASC_NODE":273.1571,"ARG_OF_PERICENTER":87.2303,"MEAN_ANOMALY":272.9023,"EPHEMERIS_TYPE":0,"CLASSIFICATION_TYPE":"U","NORAD_CAT_ID":44062,"ELEMENT_SET_NO":999,"REV_AT_EPOCH":34221,"BSTAR":-4.3948e-05,"MEAN_MOTION_DOT":-4e-08,"MEAN_MOTION_DDOT":0.0},{"OBJECT_NAME":"ONEWEB-0013","OBJECT_ID":"2020-008A","EPOCH":"2026-04-07T22:45:32.362272","MEAN_MOTION":13.09454196,"ECCENTRICITY":0.0001851,"INCLINATION":87.8485,"RA_OF_ASC_NODE":66.9923,"ARG_OF_PERICENTER":113.9117,"MEAN_ANOMALY":246.2204,"EPHEMERIS_TYPE":0,"CLASSIFICATION_TYPE":"U","NORAD_CAT_ID":45131,"ELEMENT_SET_NO":999,"REV_AT_EPOCH":29687,"BSTAR":-0.0015334,"MEAN_MOTION_DOT":-5.15e-06,"MEAN_MOTION_DDOT":0.0},{"OBJECT_NAME":"ONEWEB-0017","OBJECT_ID":"2020-008B","EPOCH":"2026-04-08T03:10:57.060768","MEAN_MOTION":13.10374853,"ECCENTRICITY":0.0002064,"INCLINATION":87.8826,"RA_OF_ASC_NODE":50.2093,"ARG_OF_PERICENTER":75.7966,"MEAN_ANOMALY":284.3391,"EPHEMERIS_TYPE":0,"CLASSIFICATION_TYPE":"U","NORAD_CAT_ID":45132,"ELEMENT_SET_NO":999,"REV_AT_EPOCH":29877,"BSTAR":-0.0012916,"MEAN_MOTION_DOT":-4.38e-06,"MEAN_MOTION_DDOT":0.0},{"OBJECT_NAME":"ONEWEB-0020","OBJECT_ID":"2020-008C","EPOCH":"2026-04-08T02:27:55.389888","MEAN_MOTION":13.10371057,"ECCENTRICITY":0.0001885,"INCLINATION":87.8828,"RA_OF_ASC_NODE":50.2082,"ARG_OF_PERICENTER":81.0512,"MEAN_ANOMALY":279.0829,"EPHEMERIS_TYPE":0,"CLASSIFICATION_TYPE":"U","NORAD_CAT_ID":45133,"ELEMENT_SET_NO":999,"REV_AT_EPOCH":29916,"BSTAR":-0.00011985,"MEAN_MOTION_DOT":-2.9e-07,"MEAN_MOTION_DDOT":0.0},{"OBJECT_NAME":"ONEWEB-0021","OBJECT_ID":"2020-008D","EPOCH":"2026-04-07T21:19:32.808288","MEAN_MOTION":13.10373609,"ECCENTRICITY":0.0001919,"INCLINATION":87.8821,"RA_OF_ASC_NODE":50.2728,"ARG_OF_PERICENTER":82.8338,"MEAN_ANOMALY":277.3007,"EPHEMERIS_TYPE":0,"CLASSIFICATION_TYPE":"U","NORAD_CAT_ID":45134,"ELEMENT_SET_NO":999,"REV_AT_EPOCH":29944,"BSTAR":-0.0015775000000000001,"MEAN_MOTION_DOT":-5.38e-06,"MEAN_MOTION_DDOT":0.0},{"OBJECT_NAME":"ONEWEB-0023","OBJECT_ID":"2020-008F","EPOCH":"2026-04-08T03:04:57.952992","MEAN_MOTION":13.10374382,"ECCENTRICITY":0.0001817,"INCLINATION":87.8827,"RA_OF_ASC_NODE":50.2044,"ARG_OF_PERICENTER":85.1461,"MEAN_ANOMALY":274.9874,"EPHEMERIS_TYPE":0,"CLASSIFICATION_TYPE":"U","NORAD_CAT_ID":45136,"ELEMENT_SET_NO":999,"REV_AT_EPOCH":29890,"BSTAR":-0.0017366999999999999,"MEAN_MOTION_DOT":-5.94e-06,"MEAN_MOTION_DDOT":0.0},{"OBJECT_NAME":"ONEWEB-0024","OBJECT_ID":"2020-008G","EPOCH":"2026-04-08T06:05:26.837376","MEAN_MOTION":13.1037124,"ECCENTRICITY":0.0001909,"INCLINATION":87.8828,"RA_OF_ASC_NODE":50.1676,"ARG_OF_PERICENTER":80.4139,"MEAN_ANOMALY":279.7204,"EPHEMERIS_TYPE":0,"CLASSIFICATION_TYPE":"U","NORAD_CAT_ID":45137,"ELEMENT_SET_NO":999,"REV_AT_EPOCH":29908,"BSTAR":0.00029420000000000005,"MEAN_MOTION_DOT":1.15e-06,"MEAN_MOTION_DDOT":0.0},{"OBJECT_NAME":"ONEWEB-0025","OBJECT_ID":"2020-008H","EPOCH":"2026-04-08T06:01:51.827520","MEAN_MOTION":13.10372232,"ECCENTRICITY":0.0002022,"INCLINATION":87.8834,"RA_OF_ASC_NODE":50.1548,"ARG_OF_PERICENTER":91.2161,"MEAN_ANOMALY":268.9198,"EPHEMERIS_TYPE":0,"CLASSIFICATION_TYPE":"U","NORAD_CAT_ID":45138,"ELEMENT_SET_NO":999,"REV_AT_EPOCH":29941,"BSTAR":-0.00090927,"MEAN_MOTION_DOT":-3.05e-06,"MEAN_MOTION_DDOT":0.0},{"OBJECT_NAME":"ONEWEB-0026","OBJECT_ID":"2020-008J","EPOCH":"2026-04-08T06:29:51.140256","MEAN_MOTION":13.11416768,"ECCENTRICITY":0.0001933,"INCLINATION":87.8921,"RA_OF_ASC_NODE":34.9633,"ARG_OF_PERICENTER":74.5594,"MEAN_ANOMALY":285.5748,"EPHEMERIS_TYPE":0,"CLASSIFICATION_TYPE":"U","NORAD_CAT_ID":45139,"ELEMENT_SET_NO":999,"REV_AT_EPOCH":30194,"BSTAR":0.0013543,"MEAN_MOTION_DOT":4.93e-06,"MEAN_MOTION_DDOT":0.0},{"OBJECT_NAME":"ONEWEB-0028","OBJECT_ID":"2020-008K","EPOCH":"2026-04-08T05:27:34.068096","MEAN_MOTION":13.11414254,"ECCENTRICITY":0.0001747,"INCLINATION":87.8906,"RA_OF_ASC_NODE":34.9776,"ARG_OF_PERICENTER":97.1588,"MEAN_ANOMALY":262.9739,"EPHEMERIS_TYPE":0,"CLASSIFICATION_TYPE":"U","NORAD_CAT_ID":45140,"ELEMENT_SET_NO":999,"REV_AT_EPOCH":29945,"BSTAR":-0.0011488,"MEAN_MOTION_DOT":-3.94e-06,"MEAN_MOTION_DDOT":0.0},{"OBJECT_NAME":"ONEWEB-0032","OBJECT_ID":"2020-008L","EPOCH":"2026-04-07T21:43:27.215040","MEAN_MOTION":13.10378304,"ECCENTRICITY":0.0001687,"INCLINATION":87.8824,"RA_OF_ASC_NODE":50.2559,"ARG_OF_PERICENTER":95.5475,"MEAN_ANOMALY":264.5845,"EPHEMERIS_TYPE":0,"CLASSIFICATION_TYPE":"U","NORAD_CAT_ID":45141,"ELEMENT_SET_NO":999,"REV_AT_EPOCH":29909,"BSTAR":-0.0008698,"MEAN_MOTION_DOT":-2.91e-06,"MEAN_MOTION_DDOT":0.0}]